STARLINK-32514          
1 61965U 24210G   26068.31247905  .00032758  00000+0  11939-2 0  9998
2 61965  42.9967 174.9140 0000875 294.8592  65.2168 15.27598956 74939
HERMES-2                
1 63243U 25052AK  26068.92847372  .00009456  00000+0  34839-3 0  9999
2 63243  97.4004 324.4926 0006340  99.4160 260.7796 15.28021069 54859
